{"fetched_at":"2026-03-29T16:36:15Z","count":15609,"tles":[{"name":"STARLINK-35889","line1":"1 67189U 25303AC  26087.66888280  .00035856  00000+0  13050-2 0  9990","line2":"2 67189  42.9996 203.8825 0001365 273.2854  86.7842 15.27610459 15636","category":"Starlink"}]}